#dP2022  5 14  0  0  0.00000000      96 __u+U ITR14 FIT  IAC
## 2209 518400.00000000   900.00000000 59713 0.0000000000000
+  126   C01C02C03C04C05C06C07C08C09C10C11C12C13C14C16C19C20
+        C21C22C23C24C25C26C27C28C29C30C32C33C34C35C36C37C38
+        C39C40C41C42C43C44C45C46C60E02E03E04E05E07E08E09E10
+        E11E12E13E14E15E18E19E21E24E25E26E27E30E31E33E34E36
+        G01G02G03G04G05G06G07G08G09G10G11G12G13G14G15G16G17
+        G18G19G20G21G22G23G24G25G26G27G28G29G30G31G32J02J03
+        J07R01R02R03R04R05R06R07R08R09R10R11R12R13R14R15R17
+        R18R19R20R21R22R23R24  0  0  0  0  0  0  0  0  0  0
++        15 14 15 15 15  9  9  9  9  8  9  8  9  8  9  7  7
++         7  7  7  6  7  6  7  7  7  7  7  7  7  7  7  7  8
++         8  8  7  7  7  7  7  7 15  4  4  4  4  4  4  5  5
++         4  4  4  4  4  5  5  5  4  4  4  4  4  5  4  4  4
++         4  4  4  4  3  4  4  4  4  4  4  4  3  4  4  4  4
++         3  4  3  4  4  3  4  4  4  3  4  3  3  4  4  8  8
++        15  7  6  6  6  6 13  6  6  6 13  5  5  7  7  6  6
++         6  7  7  6  8 13  6  0  0  0  0  0  0  0  0  0  0
%c M  cc GPS ccc cccc cccc cccc cccc ccccc ccccc ccccc ccccc
%c cc cc ccc ccc cccc cccc cccc cccc ccccc ccccc ccccc ccccc
%f  0.0000000  0.000000000  0.00000000000  0.000000000000000
%f  0.0000000  0.000000000  0.00000000000  0.000000000000000
%i    0    0    0    0      0      0      0      0         0
%i    0    0    0    0      0      0      0      0         0
/* INFORMATION & ANALYSIS CENTER (IAC)            RAPID DATA
/* S/V CLOCKS ARE ALIGNED TO GNSS TIME                      
/* G:C1WC2W R:C1PC2P E:C1XC5X C:C2IC6I J:C1CC2S             
/* PCV:IGS14_2196 OL/AL:FES2004  NONE     YN ORB:CoN CLK:CoN
*  2022 05 14  3 45  0.00000000
PC01 -34328.732013  24496.208007    -17.046309    190.592868
PC02   4352.375174  41864.822175  -1315.021662     28.721230
PC03 -14728.715663  39465.840859   -701.523649   -553.058503
PC04 -39611.602433  14444.696042    406.773055    109.109730
PC05  21999.773390  35908.233346  -1062.144166    236.895360
PC06  -2095.858378  36315.096543 -21130.851784    -19.408739
PC07 -12070.975087  25574.221578  31245.697264   -163.664440
PC08 -18532.885772  36133.440851 -11610.583689    311.643820
PC09   3672.743358  39499.040136 -13144.784015   -785.514524
PC10  -2238.344094  26938.315039  32602.352366    132.354550
PC11  10883.766823 -12187.479187 -22559.868968    350.909724
PC12  17814.491163   7326.732017 -20167.093220   -616.451264
PC13 -11870.482108  36318.464221 -17981.928943    -33.449955
PC14  21087.810603  -9227.842681  15845.813071    474.482729
PC16  -3865.934457  34463.510959 -23626.913704    131.022931
PC19 -11895.474662  13630.575612 -21209.236778    870.143666
PC20 -25873.192305   4337.776815  -9443.124947   -914.138742
PC21  25201.728015   8203.728529  -8760.117842   -286.990055
PC22   9566.554886  15446.121677 -21183.527330   -970.549908
PC23     -1.988524 -21759.132896 -17467.291230   -930.115337
PC24  20851.272003 -10925.701181  14961.907094   -964.156646
PC25  13784.410974 -24101.117735  -2705.110467   -736.990465
PC26  15317.540442   6085.225830  22505.363172    738.167710
PC27 -17940.605566 -15982.789379  14183.287065    722.855183
PC28  -9912.915124 -25982.069024  -2326.743340     66.498650
PC29  -3620.075330  20929.722386  18085.025775    554.363193
PC30 -15962.675447   3216.559042  22653.671442    498.452377
PC32 -25199.028183  -8075.861126   8857.862608   -963.191928
PC33  11941.616605 -13713.080618  21184.801805   -965.825805
PC34  15544.047983  -4372.335185 -22773.696400   -404.045881
PC35  10159.415557  25760.205146   3281.094186    273.015000
PC36 -14659.995863  23644.653786   2224.414583   -964.201830
PC37 -14483.695596  -7547.115294 -22613.554794   -912.269180
PC38 -22222.038137  35720.660737  -3773.667216    231.981540
PC39  -6977.191859  30504.181664 -28152.913073     34.976785
PC40 -17659.391842  18897.364854  33239.606144    268.870954
PC41  -9033.466174 -15555.195537  21389.054370   -965.904499
PC42  26316.652492  -3782.069152   8568.229195   -968.722416
PC43   4317.799963 -20511.262194 -18447.904662   -924.248947
PC44  18552.452181  15410.692398 -14024.013245    658.904031
PC45    178.933463  21573.566007  17713.235001    756.452164
PC46 -20813.372887  12401.091361 -13876.645296   -323.400463
PC60   7345.906250  41512.217027    483.708577     -0.850834
PE02  24384.517692 -15770.741181  -5693.214415    299.025380
PE03  15593.742447  -9321.093413  23376.558796   -558.029258
PE04   3611.865354  20500.501511 -21032.526128  -1027.453769
PE05  25985.593326   7555.727893  12007.342143   -181.836896
PE07 -21103.788788 -19803.169330   6198.802183   -668.271349
PE08  -4010.851594 -20466.644252  21006.454908   -528.718042
PE09  21292.792319  19652.097520  -6081.735770   -517.508106
PE10   3838.056724  27957.330250  -8942.875553   -512.864347
PE11   9860.749694  21656.603524 -17605.359519   3676.676754
PE12  -2602.696635  29465.497676    645.528535   4614.885924
PE13  -9482.326687 -22214.889053  17117.344242    428.663270
PE14 -19821.570229  -7002.672310  10789.618260  -1838.270990
PE15   2625.765043 -29478.504018   -808.012106    745.802222
PE18  25936.675339   3678.043501 -19215.992067  -1451.528058
PE19 -17499.474701   7213.178058 -22745.075002  -4628.856415
PE21 -26830.929804   3764.872449 -11927.248440   -734.051118
PE24  12784.485443  11984.328132  23838.207615   -613.731457
PE25  26751.703419  -3551.860248  12160.584399   -573.855878
PE26 -16187.755566   -889.438038  24764.368086  -1142.040960
PE27 -13984.134227 -11124.135926 -23598.774330   -298.263562
PE30   8070.128406 -19477.111232 -20781.860160   -508.609042
PE31  -6986.468271  19347.496426  21290.620317   -496.589934
PE33 -13131.436861  19313.582380  18176.495774   -456.659051
PE34  13030.949932 -19518.636970 -18048.175732   -516.938817
PE36  15940.967718   1941.558010 -24867.438455   -373.335082
PG01 -13270.104704  17726.687635  14099.209553    363.475240
PG02  14294.254334   4396.158439 -21290.769588   -653.253517
PG03 -21729.820997  13036.230890  -7863.078015   -243.414229
PG04 -13077.407972   8372.613550 -21545.291457   -167.450406
PG05  25292.277682  -4282.497574  -7348.193666    -81.765424
PG06   6931.216610  19733.130093 -16260.830488    302.551530
PG07  -4932.812845  25817.967113    461.012915    322.044247
PG08 -19485.032181    128.442778  18167.925265    -67.920194
PG09  -2689.219278  16744.167740 -20497.313442   -336.902625
PG10  -5527.423118 -13965.617329  22056.633418   -413.689633
PG11  14155.476387   5680.603722 -21746.954005    -25.259135
PG12  24359.805039  -9547.348640  -4442.670830   -215.123121
PG13  20745.265900   9885.107738  13315.359492    311.191233
PG14   3686.671188  14947.807343  21637.932310   -108.169004
PG15  19233.984675  -3055.928627  17781.950363    -61.424501
PG16 -24323.064166  -2062.223786 -11283.978534   -500.663647
PG17  11755.228673  21574.043522  10451.804428    612.370624
PG18   6068.424932 -25788.268803   -588.057568    170.703518
PG19  16866.331661  20516.254564   2212.938010    157.037858
PG20  20726.273014   2439.141844 -16289.238006    515.121827
PG21 -15494.674132   7190.213359  20808.206407    161.067429
PG22 -18225.399180 -19454.061948    598.055537    258.772157
PG23   6810.631540 -16759.898592  19401.876576    -21.721971
PG24  14192.029699 -14268.904201  16824.753019    241.460414
PG25  13891.625560 -16482.353974 -15623.049224    324.418485
PG26 -17050.649345  -8073.984392 -18898.980937    205.465246
PG27 -22382.626971 -11273.060032   9160.499482    202.448868
PG28  12584.394977  11647.075108  20735.931130    358.285655
PG29   4102.170433 -15852.247576 -20951.073303   -513.395100
PG30   1471.240652  24811.851703   9084.191975   -527.798593
PG31  -9001.837692 -17441.740696 -17803.344475   -177.520139
PG32 -14917.715870 -20545.944783   8261.680127   -126.610975
PJ02 -29788.118680  28697.428474  12970.379699     -0.119102
PJ03 -25595.716789  25245.730296  27081.247211     -2.136470
PJ07 -25369.089343  33665.796246    -50.708134      0.015524
PR01  -8775.662977   8823.147774 -22256.859132      8.690577
PR02  11954.153718  12548.165080 -18642.624757    518.321032
PR03  23727.599242   8455.502572  -3794.662822     56.607709
PR04  22005.623982    -68.851576  12927.639027    141.404872
PR05   8231.722802  -8625.602037  22563.560896     92.836586
PR06 -13332.849276 -12251.075602  17971.711497    -48.312789
PR07 -23955.001050  -8252.070403   3194.936163     35.053136
PR08 -21995.319306    205.054825 -12873.963149    -65.114709
PR09    322.326322 -14943.554625 -20674.609792     54.930426
PR10 -12444.890010  -2475.239093 -22148.293600    -82.366845
PR11 -19437.978878  12403.041069 -10883.051598     39.056580
PR12 -14476.871003  19571.270437   7672.406314     18.433609
PR13  -1609.543629  15441.857473  20223.203598    -22.268759
PR14  13437.715034   1368.614287  21652.795400     25.728022
PR15  19693.288459 -12683.824959  10120.917470     96.142854
PR17  11816.486718  14321.856866 -17506.321766    525.864244
PR18   9963.070312  -3175.876074 -23258.652861    116.773887
PR19   4069.436194 -18035.966737 -17579.542100   -188.919538
PR20  -5828.981769 -24834.926845   1089.596647    -70.532889
PR21 -11784.655234 -12987.378569  18507.755871   -301.065237
PR22  -9730.473418   3864.875087  23236.756102   -183.019528
PR23   -827.017189  21821.997720  13163.225996    -40.621765
PR24   6759.776631  24537.880488  -1763.217066     93.642464
EOF
